[{"OBJECT_NAME":"LEMUR-2-ARIANNA","OBJECT_ID":"2025-009CU","EPOCH":"2026-03-03T16:10:04.800288","MEAN_MOTION":15.00746172,"ECCENTRICITY":0.0004397,"INCLINATION":97.7026,"RA_OF_ASC_NODE":145.0322,"ARG_OF_PERICENTER":158.4838,"MEAN_ANOMALY":201.6572,"EPHEMERIS_TYPE":0,"CLASSIFICATION_TYPE":"U","NORAD_CAT_ID":62699,"ELEMENT_SET_NO":999,"REV_AT_EPOCH":6172,"BSTAR":0.000854,"MEAN_MOTION_DOT":0.00010781,"MEAN_MOTION_DDOT":0},{"OBJECT_NAME":"LEMUR-2-ALISIA","OBJECT_ID":"2025-009DB","EPOCH":"2026-03-03T12:55:08.210208","MEAN_MOTION":15.01008948,"ECCENTRICITY":0.0006283,"INCLINATION":97.7072,"RA_OF_ASC_NODE":145.5482,"ARG_OF_PERICENTER":173.2978,"MEAN_ANOMALY":186.8331,"EPHEMERIS_TYPE":0,"CLASSIFICATION_TYPE":"U","NORAD_CAT_ID":62706,"ELEMENT_SET_NO":999,"REV_AT_EPOCH":8430,"BSTAR":0.00085135,"MEAN_MOTION_DOT":0.00010824,"MEAN_MOTION_DDOT":0},{"OBJECT_NAME":"LEMUR-2-ROUNDTRIPPER","OBJECT_ID":"2025-009DG","EPOCH":"2026-03-03T16:46:38.972352","MEAN_MOTION":15.01929187,"ECCENTRICITY":0.0004634,"INCLINATION":97.7309,"RA_OF_ASC_NODE":145.6635,"ARG_OF_PERICENTER":141.8905,"MEAN_ANOMALY":218.2648,"EPHEMERIS_TYPE":0,"CLASSIFICATION_TYPE":"U","NORAD_CAT_ID":62711,"ELEMENT_SET_NO":999,"REV_AT_EPOCH":6178,"BSTAR":0.00094569,"MEAN_MOTION_DOT":0.00012326,"MEAN_MOTION_DDOT":0},{"OBJECT_NAME":"LEMUR-2-MYNAMEISJEFF","OBJECT_ID":"2025-009DH","EPOCH":"2026-03-03T16:44:31.400160","MEAN_MOTION":15.01916384,"ECCENTRICITY":0.0003679,"INCLINATION":97.7357,"RA_OF_ASC_NODE":145.9807,"ARG_OF_PERICENTER":169.8085,"MEAN_ANOMALY":190.3214,"EPHEMERIS_TYPE":0,"CLASSIFICATION_TYPE":"U","NORAD_CAT_ID":62712,"ELEMENT_SET_NO":999,"REV_AT_EPOCH":6178,"BSTAR":0.0009268,"MEAN_MOTION_DOT":0.00012073,"MEAN_MOTION_DDOT":0},{"OBJECT_NAME":"LEMUR-2-LEIA-PHILIP","OBJECT_ID":"2025-052AN","EPOCH":"2026-03-03T15:57:01.383840","MEAN_MOTION":14.96543302,"ECCENTRICITY":0.0002639,"INCLINATION":97.6975,"RA_OF_ASC_NODE":316.3595,"ARG_OF_PERICENTER":195.3272,"MEAN_ANOMALY":164.787,"EPHEMERIS_TYPE":0,"CLASSIFICATION_TYPE":"U","NORAD_CAT_ID":63246,"ELEMENT_SET_NO":999,"REV_AT_EPOCH":5288,"BSTAR":0.00072476,"MEAN_MOTION_DOT":8.191e-5,"MEAN_MOTION_DDOT":0},{"OBJECT_NAME":"LEMUR-2-LIA-MARTIN","OBJECT_ID":"2025-052AQ","EPOCH":"2026-03-03T16:28:48.918720","MEAN_MOTION":14.96711512,"ECCENTRICITY":0.0002997,"INCLINATION":97.7019,"RA_OF_ASC_NODE":316.7382,"ARG_OF_PERICENTER":160.1445,"MEAN_ANOMALY":199.9894,"EPHEMERIS_TYPE":0,"CLASSIFICATION_TYPE":"U","NORAD_CAT_ID":63248,"ELEMENT_SET_NO":999,"REV_AT_EPOCH":5289,"BSTAR":0.00064989,"MEAN_MOTION_DOT":7.37e-5,"MEAN_MOTION_DDOT":0},{"OBJECT_NAME":"LEMUR-2-DELOITTE-1","OBJECT_ID":"2025-052BB","EPOCH":"2026-03-03T15:43:48.944640","MEAN_MOTION":14.96714805,"ECCENTRICITY":0.0003255,"INCLINATION":97.7056,"RA_OF_ASC_NODE":317.0188,"ARG_OF_PERICENTER":91.2402,"MEAN_ANOMALY":268.9192,"EPHEMERIS_TYPE":0,"CLASSIFICATION_TYPE":"U","NORAD_CAT_ID":63259,"ELEMENT_SET_NO":999,"REV_AT_EPOCH":5290,"BSTAR":0.00062882,"MEAN_MOTION_DOT":7.13e-5,"MEAN_MOTION_DDOT":0},{"OBJECT_NAME":"LEMUR-2-EMERSONROSE","OBJECT_ID":"2025-052BD","EPOCH":"2026-03-03T16:01:02.423424","MEAN_MOTION":14.98138977,"ECCENTRICITY":0.0003359,"INCLINATION":97.7044,"RA_OF_ASC_NODE":317.378,"ARG_OF_PERICENTER":64.7163,"MEAN_ANOMALY":295.4407,"EPHEMERIS_TYPE":0,"CLASSIFICATION_TYPE":"U","NORAD_CAT_ID":63261,"ELEMENT_SET_NO":999,"REV_AT_EPOCH":5293,"BSTAR":0.00069364,"MEAN_MOTION_DOT":8.167e-5,"MEAN_MOTION_DDOT":0},{"OBJECT_NAME":"LEMUR-2-MARACHE-FRAN","OBJECT_ID":"2025-052BE","EPOCH":"2026-03-03T16:48:41.867712","MEAN_MOTION":14.98785913,"ECCENTRICITY":0.0002362,"INCLINATION":97.7005,"RA_OF_ASC_NODE":317.5999,"ARG_OF_PERICENTER":41.9251,"MEAN_ANOMALY":318.2152,"EPHEMERIS_TYPE":0,"CLASSIFICATION_TYPE":"U","NORAD_CAT_ID":63262,"ELEMENT_SET_NO":999,"REV_AT_EPOCH":5295,"BSTAR":0.00075999,"MEAN_MOTION_DOT":9.106e-5,"MEAN_MOTION_DDOT":0},{"OBJECT_NAME":"LEMUR-2-THEFALCONER","OBJECT_ID":"2025-052BG","EPOCH":"2026-03-03T15:59:14.330976","MEAN_MOTION":14.96424856,"ECCENTRICITY":0.0002788,"INCLINATION":97.7,"RA_OF_ASC_NODE":316.764,"ARG_OF_PERICENTER":36.4114,"MEAN_ANOMALY":323.7297,"EPHEMERIS_TYPE":0,"CLASSIFICATION_TYPE":"U","NORAD_CAT_ID":63264,"ELEMENT_SET_NO":999,"REV_AT_EPOCH":5290,"BSTAR":0.00052631,"MEAN_MOTION_DOT":5.913e-5,"MEAN_MOTION_DDOT":0},{"OBJECT_NAME":"LEMUR-2-UNTITLED-SC","OBJECT_ID":"2025-061A","EPOCH":"2026-03-03T17:45:44.608896","MEAN_MOTION":15.12617779,"ECCENTRICITY":0.0017262,"INCLINATION":97.5547,"RA_OF_ASC_NODE":38.9946,"ARG_OF_PERICENTER":269.1496,"MEAN_ANOMALY":90.7757,"EPHEMERIS_TYPE":0,"CLASSIFICATION_TYPE":"U","NORAD_CAT_ID":63351,"ELEMENT_SET_NO":999,"REV_AT_EPOCH":5164,"BSTAR":0.00040797,"MEAN_MOTION_DOT":7.087e-5,"MEAN_MOTION_DDOT":0},{"OBJECT_NAME":"LEMUR-2-ESPERANZA","OBJECT_ID":"2025-061B","EPOCH":"2026-03-03T17:21:23.323104","MEAN_MOTION":15.12695076,"ECCENTRICITY":0.0016714,"INCLINATION":97.5554,"RA_OF_ASC_NODE":39.0482,"ARG_OF_PERICENTER":268.4509,"MEAN_ANOMALY":91.4807,"EPHEMERIS_TYPE":0,"CLASSIFICATION_TYPE":"U","NORAD_CAT_ID":63352,"ELEMENT_SET_NO":999,"REV_AT_EPOCH":5164,"BSTAR":0.00035834,"MEAN_MOTION_DOT":6.228e-5,"MEAN_MOTION_DDOT":0},{"OBJECT_NAME":"LEMUR-2-KREMPEL-BRO2","OBJECT_ID":"2025-061C","EPOCH":"2026-03-03T12:22:06.589056","MEAN_MOTION":15.13095473,"ECCENTRICITY":0.0017618,"INCLINATION":97.5598,"RA_OF_ASC_NODE":39.2414,"ARG_OF_PERICENTER":261.1636,"MEAN_ANOMALY":98.76,"EPHEMERIS_TYPE":0,"CLASSIFICATION_TYPE":"U","NORAD_CAT_ID":63353,"ELEMENT_SET_NO":999,"REV_AT_EPOCH":5162,"BSTAR":0.00034452,"MEAN_MOTION_DOT":6.055e-5,"MEAN_MOTION_DDOT":0},{"OBJECT_NAME":"LEMUR-2-THERMORAPTOR","OBJECT_ID":"2025-061D","EPOCH":"2026-03-03T15:13:45.191712","MEAN_MOTION":15.13173153,"ECCENTRICITY":0.0017462,"INCLINATION":97.5604,"RA_OF_ASC_NODE":39.4165,"ARG_OF_PERICENTER":259.5235,"MEAN_ANOMALY":100.4029,"EPHEMERIS_TYPE":0,"CLASSIFICATION_TYPE":"U","NORAD_CAT_ID":63354,"ELEMENT_SET_NO":999,"REV_AT_EPOCH":5164,"BSTAR":0.00035927,"MEAN_MOTION_DOT":6.33e-5,"MEAN_MOTION_DDOT":0},{"OBJECT_NAME":"LEMUR-2-NEUROSPICY","OBJECT_ID":"2025-061E","EPOCH":"2026-03-03T19:30:02.224800","MEAN_MOTION":15.1328997,"ECCENTRICITY":0.0015308,"INCLINATION":97.553,"RA_OF_ASC_NODE":39.3014,"ARG_OF_PERICENTER":263.163,"MEAN_ANOMALY":96.786,"EPHEMERIS_TYPE":0,"CLASSIFICATION_TYPE":"U","NORAD_CAT_ID":63355,"ELEMENT_SET_NO":999,"REV_AT_EPOCH":5167,"BSTAR":0.00050176,"MEAN_MOTION_DOT":8.892e-5,"MEAN_MOTION_DDOT":0},{"OBJECT_NAME":"LEMUR-2-TILLINFINITY","OBJECT_ID":"2025-061F","EPOCH":"2026-03-03T19:44:04.712928","MEAN_MOTION":15.13863667,"ECCENTRICITY":0.0016588,"INCLINATION":97.5515,"RA_OF_ASC_NODE":39.5281,"ARG_OF_PERICENTER":250.0405,"MEAN_ANOMALY":109.904,"EPHEMERIS_TYPE":0,"CLASSIFICATION_TYPE":"U","NORAD_CAT_ID":63356,"ELEMENT_SET_NO":999,"REV_AT_EPOCH":5169,"BSTAR":0.00040646,"MEAN_MOTION_DOT":7.31e-5,"MEAN_MOTION_DDOT":0}]
