LEMUR-2-ARIANNA         
1 62699U 25009CU  26062.67366667  .00010781  00000+0  85400-3 0  9997
2 62699  97.7026 145.0322 0004397 158.4838 201.6572 15.00746172 61724
LEMUR-2-ALISIA          
1 62706U 25009DB  26062.53828947  .00010824  00000+0  85135-3 0  9998
2 62706  97.7072 145.5482 0006283 173.2978 186.8331 15.01008948 84301
LEMUR-2-ROUNDTRIPPER    
1 62711U 25009DG  26062.69906218  .00012326  00000+0  94569-3 0  9999
2 62711  97.7309 145.6635 0004634 141.8905 218.2648 15.01929187 61785
LEMUR-2-MYNAMEISJEFF    
1 62712U 25009DH  26062.69758565  .00012073  00000+0  92680-3 0  9991
2 62712  97.7357 145.9807 0003679 169.8085 190.3214 15.01916384 61784
LEMUR-2-LEIA-PHILIP     
1 63246U 25052AN  26062.66459935  .00008191  00000+0  72476-3 0  9995
2 63246  97.6975 316.3595 0002639 195.3272 164.7870 14.96543302 52880
LEMUR-2-LIA-MARTIN      
1 63248U 25052AQ  26062.68667730  .00007370  00000+0  64989-3 0  9991
2 63248  97.7019 316.7382 0002997 160.1445 199.9894 14.96711512 52896
LEMUR-2-DELOITTE-1      
1 63259U 25052BB  26062.65542760  .00007130  00000+0  62882-3 0  9999
2 63259  97.7056 317.0188 0003255  91.2402 268.9192 14.96714805 52900
LEMUR-2-EMERSONROSE     
1 63261U 25052BD  26062.66738916  .00008167  00000+0  69364-3 0  9996
2 63261  97.7044 317.3780 0003359  64.7163 295.4407 14.98138977 52934
LEMUR-2-MARACHE-FRAN    
1 63262U 25052BE  26062.70048458  .00009106  00000+0  75999-3 0  9992
2 63262  97.7005 317.5999 0002362  41.9251 318.2152 14.98785913 52955
LEMUR-2-THEFALCONER     
1 63264U 25052BG  26062.66613809  .00005913  00000+0  52631-3 0  9997
2 63264  97.7000 316.7640 0002788  36.4114 323.7297 14.96424856 52905
LEMUR-2-UNTITLED-SC     
1 63351U 25061A   26062.74009964  .00007087  00000+0  40797-3 0  9998
2 63351  97.5547  38.9946 0017262 269.1496  90.7757 15.12617779 51648
LEMUR-2-ESPERANZA       
1 63352U 25061B   26062.72318661  .00006228  00000+0  35834-3 0  9996
2 63352  97.5554  39.0482 0016714 268.4509  91.4807 15.12695076 51642
LEMUR-2-KREMPEL-BRO2    
1 63353U 25061C   26062.51535404  .00006055  00000+0  34452-3 0  9993
2 63353  97.5598  39.2414 0017618 261.1636  98.7600 15.13095473 51628
LEMUR-2-THERMORAPTOR    
1 63354U 25061D   26062.63455083  .00006330  00000+0  35927-3 0  9995
2 63354  97.5604  39.4165 0017462 259.5235 100.4029 15.13173153 51645
LEMUR-2-NEUROSPICY      
1 63355U 25061E   26062.81252575  .00008892  00000+0  50176-3 0  9995
2 63355  97.5530  39.3014 0015308 263.1630  96.7860 15.13289970 51671
LEMUR-2-TILLINFINITY    
1 63356U 25061F   26062.82227677  .00007310  00000+0  40646-3 0  9997
2 63356  97.5515  39.5281 0016588 250.0405 109.9040 15.13863667 51699
